[{"OBJECT_NAME":"SITRO-AIS 8 (ANOKHIN)","OBJECT_ID":"2023-091AD","EPOCH":"2026-03-09T23:44:40.058592","MEAN_MOTION":15.29359179,"ECCENTRICITY":0.0012509,"INCLINATION":97.5169,"RA_OF_ASC_NODE":133.2823,"ARG_OF_PERICENTER":92.0171,"MEAN_ANOMALY":268.2501,"EPHEMERIS_TYPE":0,"CLASSIFICATION_TYPE":"U","NORAD_CAT_ID":57193,"ELEMENT_SET_NO":999,"REV_AT_EPOCH":14927,"BSTAR":0.00064982524,"MEAN_MOTION_DOT":0.00018494,"MEAN_MOTION_DDOT":0},{"OBJECT_NAME":"STARLINK-35332","OBJECT_ID":"2025-224F","EPOCH":"2026-03-09T23:32:12.787584","MEAN_MOTION":15.30215691,"ECCENTRICITY":0.000217,"INCLINATION":53.1598,"RA_OF_ASC_NODE":9.6526,"ARG_OF_PERICENTER":132.5505,"MEAN_ANOMALY":227.5679,"EPHEMERIS_TYPE":0,"CLASSIFICATION_TYPE":"U","NORAD_CAT_ID":65887,"ELEMENT_SET_NO":999,"REV_AT_EPOCH":2490,"BSTAR":0.0011079627,"MEAN_MOTION_DOT":0.00032616,"MEAN_MOTION_DDOT":0}]
